[Satellite]
VERSION=1.1
NAME=SL-8 R/B
NICKNAME=SL-8 R/B
TLE1=1 29659U 06060B   11060.07211085  .00003120  00000-0  10431-3 0  2367
TLE2=2 29659  98.1370 224.9792 0035007 231.5144 128.2954 15.31335404234101
